"site_name_wash_co_no_permit","in_wash_co_no_permit","address","lat","lng"
"ACLARYN PLASTICS INC",1,"5405 SE ALEXANDER ST STE L, HILLSBORO, OR 97123",45.497572,-122.926602
"ACUMED INC",1,"5885 NW CORNELIUS PASS RD, HILLSBORO, OR 97124",45.563133,-122.896603
"ADVANCED COLOR SYSTEMS INC",1,"10350 SW TUALATIN RD, TUALATIN, OR 97062",45.389673,-122.782889
"AGILYX CORPORATION",1,"7904 SW HUNZIKER ST, TIGARD, OR 97223",45.430559,-122.771271
"AIR LIQUIDE AMERICA",1,"10450 SW TUALATIN SHRWD RD, TUALATIN, OR 97062",45.377155,-122.783779
"ALBINA PIPE BENDING CO",1,"12080 SW MYSLONY, TUALATIN, OR 97062",45.376418,-122.801166
"ALLIANCE PACKAGING",1,"23035 NW JACOBSON DR, HILLSBORO, OR 97124",45.565329,-122.920121
"ALOHA SANITARY SERVICE",1,"8600 SW HILLSBORO HWY, HILLSBORO, OR 97123",45.457437,-122.991494
"AMMCON CORP",1,"21450 W UNION RD, HILLSBORO, OR 97124",45.519908,-123.879723
"ANTHRO CORP",1,"10630 SW MANHASSET DR, TUALATIN, OR 97062",45.379029,-122.784471
"ANTHRO CORP",1,"10450 SW MANHASSET DR, TUALATIN, OR 97062",45.379032,-122.783396
"ARCIS CORP",1,"10680 NW 289TH PL, NORTH PLAINS, OR 97133",45.668573,-123.028124
"ARDENT MILLS INNOVATIVE BAKERY RESOURCES",1,"21151 SW 115TH, TUALATIN, OR 97062",45.389777,-122.795393
"AXIOM ELECTRONICS",1,"19545 NW VON NEUMANN DR, HILLSBORO, OR 97006",45.530928,-122.878084
"BANKS CITY OF",1,"41700 BANKS RD, BANKS, OR 97106",45.621519,-123.106594
"BANKS CITY OF",1,"20105 SELLERS RD, BANKS, OR 97106",45.66543,-123.105684
"BANKS MANUFACTURING LLC",1,"13662 NW COMMERCE St, BANKS, OR 97106",45.617737,-123.111079
"BARRIER CORPORATION",1,"9908 SW TIGARD ST, TIGARD, OR 97223",45.433066,-122.77733
"BARRIER CORPORATION",1,"9814 SW TIGARD ST, TIGARD, OR 97223",45.43274,-122.776643
"BARRIER CORPORATION",1,"9820 SW TIGARD ST, TIGARD, OR 97223",45.432761,-122.776686
"BEAVER NURSERY",1,"12773 SW CAMPBELL RD, HILLSBORO, OR 97123",45.42737,-122.991358
"BEAVERTON CITY OF",1,"9600 SW ALLEN BLVD, BEAVERTON, OR 97005",45.473497,-122.776908
"BEAVERTON CITY OF",1,"14600 SW SEXTON MTN DR, BEAVERTON, OR 97005",45.460067,-122.826602
"BEAVERTON CITY OF",1,"13520 SW HANSON RD, BEAVERTON, OR 97005",45.463507,-122.815089
"BEAVERTON CITY OF",1,"3300 SW 209TH AVE, ALOHA, OR 97007",45.496395,-122.891677
"BEAVERTON CITY OF",1,"13450 SW HANSON RD ASR 4, BEAVERTON, OR 97005",45.484587,-122.809475
"BEAVERTON TOYOTA CO",1,"4355 SW 142ND, BEAVERTON, OR 97005",45.480664,-122.823301
"BEYNON SPORT SURFACES",1,"19600 SW 129TH AVE STE A, TUALATIN, OR 97062",45.377487,-122.810085
"BLASTZONE SANDBLASTING",1,"8260 SW OLD HWY 47, GASTON, OR 97119",45.460892,-123.156114
"BOB CARLSON INC",1,"560 SW MAPLE ST, HILLSBORO, OR 97123",45.515142,-122.996534
"BONITA PIONEER PACKAGING",1,"7400 SW LANDMARK LN, PORTLAND, OR 97224",45.418133,-122.750452
"BPA",1,"4123 NW RICKEY TERR, HILLSBORO, OR 97124",45.547935,-122.896352
"BRIDGEPORT DISTRIBUTION INC",1,"16520 SW 72ND AVE BLDG 7, TIGARD, OR 97224",45.404378,-122.748997
"C F PLASTICS INC",1,"2630B SE 39TH LOOP, HILLSBORO, OR 97123",45.499248,-122.944022
"CARLSON TESTING",1,"8430 SW HUNZIKER ST, TIGARD, OR 97223",45.430559,-122.771271
"CARTER 2 SYSTEMS INC",1,"2750 SE 39TH AVE, HILLSBORO, OR 97123",45.51607,-122.941847
"CASCADE MICROTECH",1,"9100 SW GEMINI, BEAVERTON, OR 97008",45.454381,-122.791153
"CASCADE SYSTEMS TECHNOLOGY INC",1,"23176 NW BENNETT ST, HILLSBORO, OR 97124",45.554689,-122.917647
"CASCADE WINDOWS",1,"10255 SW SPOKANE CT, TUALATIN, OR 97062",45.382656,-122.781927
"CATLIN GABEL SCHOOL THE",1,"8825 SW BARNES RD, PORTLAND, OR 97225",45.508691,-122.767708
"CHICK A DEE GARDENS NURSERY INC",1,"24130 SW GRAHAMS FERRY RD, SHERWOOD, OR 97140",45.346833,-122.784887
"CHINICK LANDSCAPING & NURSERY",1,"21300 NW WEST UNION RD, HILLSBORO, OR 97123",45.569649,-122.896073
"CLEAN WATER SERVICES",1,"2025 SW MERLO CT, BEAVERTON, OR 97006",45.505279,-122.847218
"CLEAN WATER SERVICES",1,"16580 SW 85TH, TIGARD, OR 97224",45.402955,-122.764512
"CLEAN WATER SERVICES",1,"3235 SW RIVER RD, HILLSBORO, OR 97123",45.496454,-122.942598
"CLEAN WATER SERVICES",1,"SUBSTN STORM PUMP STN, SUBSTATION, OR 97000",NA,NA
"COFFEE CREEK CORRECTIONAL FACILITY",1,"24499 SW GRAHAMS FERRY RD, WILSONVILLE, OR 97070",45.317319,-122.799726
"COLUMBIA CORRUGATED BOX CO INC",1,"12777 SW TUALATIN SHRWD RD, TUALATIN, OR 97062",45.369036,-122.807991
"CONTECH ENGINEERED SOLUTIONS LLC",1,"710 SW ARMCO AVE, HILLSBORO, OR 97123",45.515985,-123.000976
"COORSTEK",1,"555 NE 53RD AVE, HILLSBORO, OR 97124",45.524247,-122.928874
"COPYTRONIX",1,"16640 SW 72ND AVE, PORTLAND, OR 97224",45.404204,-122.749124
"DAVIS TOOL INC",1,"780 SW BAILEY AVE, HILLSBORO, OR 97123",45.514412,-122.992478
"DEQ",1,"3150 NW 229TH AVE STE 150, HILLSBORO, OR 97124",45.550287,-122.909876
"DMH INC",1,"3802 24TH AVE, FOREST GROVE, OR 97116",45.525085,-123.080792
"ELECTRO SCIENTIFIC INDUSTRIES",1,"13900 NW SCIENCE PARK DR, PORTLAND, OR 97229",45.526146,-122.821394
"ELECTRONIC MFG SERVICES",1,"10950 SW 5TH ST STE 180, BEAVERTON, OR 97005",45.48365,-122.788806
"ENSTROM LANDSCAPE MANAGEMENT L",1,"13300 SW GALBREATH DR, SHERWOOD, OR 97140",45.371801,-122.818216
"EPSON PORTLAND INC",1,"3950 NW ALOCLEK PL, HILLSBORO, OR 97124",45.548011,-122.890416
"FISKARS BRANDS INC",1,"14200 SW 72ND AVE, PORTLAND, OR 97224",45.405217,-122.748984
"FOREST GROVE CITY OF",1,"2551-A 23RD AVE, FOREST GROVE, OR 97116",45.523809,-123.10295
"FOREST GROVE CITY OF",1,"2300 SUNSET DR, FOREST GROVE, OR 97116",45.52429,-123.108528
"FOREST GROVE CITY OF",1,"501 WATERCREST, FOREST GROVE, OR 97116",45.533148,-123.134709
"FOREST GROVE SCHOOL DIST 15",1,"2701 TAYLOR WAY, FOREST GROVE, OR 97116",45.508769,-123.097858
"FOREST HILLS GOLF COURSE",1,"36260 SW TONGUE LN, CORNELIUS, OR 97113",45.483963,-123.047576
"FOREVER GREEN LANDSCAPES LLC",1,"16069 SW HILLSBORO HWY, HILLSBORO, OR 97123",45.403522,-122.94117
"FUJIMI CORPORATION",1,"11200 SW LEVETON DR, TUALATIN, OR 97062",45.385945,-122.793442
"FUJIMI CORPORATION",1,"9949 SW COMMERCE CIR, WILSONVILLE, OR 97070",45.335279,-122.774431
"GARRON GROUNDS MAN INC",1,"11277 SW CLAY ST STE D, SHERWOOD, OR 97140",45.344543,-122.792213
"GENENTECH INC",1,"4625 NW BROOKWOOD PKWY, HILLSBORO, OR 97124",45.548307,-122.927294
"GENERAL TREE SERVICE",1,"6795 SW 111TH AVE, BEAVERTON, OR 97008",45.470648,-122.7909
"GLACIER NORTHWEST INC",1,"19585 SW 118TH AVE, TUALATIN, OR 97062",45.377534,-122.799031
"GM NAMEPLATE",1,"13725 SW MILLIKAN WAY, BEAVERTON, OR 97005",45.489164,-122.806291
"GOLD HILL NURSERY LLC",1,"24700 SW TILE FLAT RD, HILLSBORO, OR 97123",45.443754,-122.930666
"GRABHORN INC",1,"14930 SW VANDERMOST RD, BEAVERTON, OR 97007",45.415486,-122.86757
"GRASS AUTHORITY INC THE",1,"15575 SW 74TH AVE STE 3, TIGARD, OR 97224",45.414361,-122.752584
"GREEN ART LANDSCAPING COMPANY LLC",1,"8335 NW CORNELIUS PASS RD, HILLSBORO, OR 97124",45.58003,-122.875501
"GREEN ENERGY SOLUTIONS",1,"23515 NW CLARA LN STE 150, HILLSBORO, OR 97124",45.52465,-122.919904
"GREENSCAPES LAWN TREE & PLANT",1,"8900 SW BURNHAM ST STE E105, TIGARD, OR 97223",45.430559,-122.771271
"GRIFFITH POLYMERS INC",1,"10500 SW MANHASSET DR, TUALATIN, OR 97062",45.379031,-122.783652
"GROUNDS MAINTENANCE OF OR INC",1,"23050 SW 82ND AVE, TUALATIN, OR 97062",45.354191,-122.761855
"H W METAL PRODUCTS",1,"19480 SW 118TH, TUALATIN, OR 97062",45.378502,-122.798882
"HILLSBORO CITY OF",1,"953 SE MAPLE ST, HILLSBORO, OR 97123",45.514975,-122.97494
"HILLSBORO CITY OF",1,"4475 SW FERNHILL RD, FOREST GROVE, OR 97116",45.487585,-123.093996
"HILLSBORO CITY OF",1,"142 SE MAPLE ST, HILLSBORO, OR 97123",45.514932,-122.989179
"HILLSBORO CITY OF",1,"450 NE 53RD AVE, HILLSBORO, OR 97124",45.521639,-122.928951
"HILLSBORO CITY OF",1,"CHERRY GROVE PUMP STA, GASTON, OR 97119",45.446197,-123.24345
"HILLSBORO LANDFILL-T V WASTE RECOVERY",1,"3205 SE MINTER BRIDGE RD, HILLSBORO, OR 97123",45.496898,-122.967848
"HILLSBORO SCHOOL DISTRICT 1J",1,"1220 SW WALNUT ST, HILLSBORO, OR 97123",45.517555,-123.002681
"HINES GROWERS INC",1,"45296 SW RITCHEY RD, FOREST GROVE, OR 97116",45.511116,-123.149104
"HINES GROWERS INC",1,"RT 2 DOBER RD, CORNELIUS, OR 97113",45.457653,-123.03463
"HINES GROWERS INC",1,"37710 SW NURSERY RD, CORNELIUS, OR 97113",45.476591,-123.063936
"INSERTA FITTINGS CO",1,"3707 24TH AVE, FOREST GROVE, OR 97116",45.525226,-123.082677
"INTEL CORPORATION",1,"2501 229TH AVE NW, HILLSBORO, OR 97124",45.550374,-122.909889
"INTEL CORPORATION",1,"3585 SW 198TH, ALOHA, OR 97007",45.493964,-122.881299
"INTEL CORPORATION",1,"2111 NE 25TH AVE, HILLSBORO, OR 97124",45.540177,-122.957187
"INTEL CORPORATION",1,"5200 NE ELAM YOUNG PKWY, HILLSBORO, OR 97124",45.529886,-122.93142
"INTEL CORPORATION",1,"23225 NW EVERGREEN PKWY, HILLSBORO, OR 97124",45.550993,-122.918965
"INTERNATIONAL PAPER",1,"5500 SW WESTERN AVE, BEAVERTON, OR 97005",45.480156,-122.782777
"INTERNATIONAL PAPER",1,"5800 SW WESTERN, BEAVERTON, OR 97005",45.477346,-122.782622
"INTERNATIONAL PAPER COMPANY",1,"5570 SW WESTERN AVE, BEAVERTON, OR 97005",45.477613,-122.782774
"JAE OREGON INC",1,"11555 SW LEVETON DR, TUALATIN, OR 97062",45.385905,-122.796927
"JAMES KING & CO INC",1,"19939 SW CIPOLE, SHERWOOD, OR 97041",45.842987,-122.867436
"JB INSULATION",1,"14255 SW GALBREATH DR, SHERWOOD, OR 97140",45.368657,-122.823806
"JIFFY LUBE",1,"15930 SW TUALATIN SHRWD RD, SHERWOOD, OR 97140",45.368228,-122.840298
"JIREH SEMICONDUCTOR INCORPORAT",1,"3131 NW BROOKWOOD PKWY, HILLSBORO, OR 97124",45.547239,-122.929522
"KAISER PERMANENTE",1,"19185 SW 90TH, TUALATIN, OR 97062",45.380323,-122.77062
"KINETICS DYNACAST INC",1,"10085 SW COMMERCE CIR, WILSONVILLE, OR 97070",45.33557,-122.777068
"KING CITY GOLF COURSE",1,"16060 SW KING CHARLES, PORTLAND, OR 97224",45.403046,-122.801903
"KNIFE RIVER",1,"699 SW WOOD ST, HILLSBORO, OR 97123",45.512623,-123.001253
"LANDDCARE",1,"7920 SW HUNZIKER ST, TIGARD, OR 97223",45.430559,-122.771271
"LANDGRAPHICS INC",1,"21255 SW CHERRY LN, HILLSBORO, OR 97124",45.530271,-122.896891
"LANDSCAPE UNLIMITED LLC",1,"3400 SW 209TH AVE, ALOHA, OR 97007",45.49557,-122.891625
"LEGACY MERIDIAN PARK HOSPITAL",1,"19300 SW 65TH AVE, TUALATIN, OR 97062",45.379112,-122.743917
"LEUPOLD & STEVENS INC",1,"14400 NW GREENBRIER PKWY, BEAVERTON, OR 97006",45.524738,-122.826324
"LEXUS OF PORTLAND LLC",1,"8840 SW CANYON RD, PORTLAND, OR 97225",45.49769,-122.767584
"LGINTERNATIONAL",1,"6700 SW BRADBURY CT, PORTLAND, OR 97224",45.398933,-122.743866
"LIEB FOODS LLC",1,"2550 23RD AVE, FOREST GROVE, OR 97116",45.523809,-123.10296
"MACS RADIATOR & REPAIR",1,"631 SW BASELINE, HILLSBORO, OR 97123",45.520229,-122.996179
"MAGNO HUMPHRIES INC",1,"8800 SW COMMERCIAL ST, TIGARD, OR 97223",45.430559,-122.771271
"MAXTEK COMPONENTS CORP",1,"2905 SW HOCKEN AVE, BEAVERTON, OR 97005",45.493831,-122.813658
"MCKAY CREEK GOLF COURSE INC",1,"1416 NW JACKSON ST, HILLSBORO, OR 97124",45.525263,-123.003509
"MERIWETHER NATIONAL GOLF",1,"5200 SW ROOD BRIDGE RD, HILLSBORO, OR 97123",45.481278,-122.950276
"MILGARD MFG CO",1,"20789 SW 115TH ST, TUALATIN, OR 97062",45.389777,-122.795393
"MONTINORE VINEYARDS",1,"3663 SW DILLEY RD, FOREST GROVE, OR 97116",45.493512,-123.129557
"MORGAN INDUSTRIAL INC",1,"23810 NW HUFFMAN ST, HILLSBORO, OR 97124",45.229191,-123.179569
"NEW SEASON FOODS",1,"2329 YEW ST, FOREST GROVE, OR 97116",45.524325,-123.073046
"NIKE INC",1,"ONE BOWERMAN DR, BEAVERTON, OR 97005",45.485786,-122.800314
"NORTEK AIR SOLUTIONS",1,"19855 SW 124TH AVE, TUALATIN, OR 97062",45.37668,-122.805014
"NORTHWEST CIRCUIT BOARD",1,"2900 SW CORNELIUS PASS RD STE 864, HILLSBORO, OR 97123",45.499855,-122.902057
"NORTHWEST EARTHMOVERS INC",1,"13600 SW GALBREATH DR, SHERWOOD, OR 97140",45.371801,-122.818216
"OAK HILLS HOMEOWNERS ASSOC",1,"2085 NW 153RD AVE, BEAVERTON, OR 97006",45.535055,-122.833859
"OAK KNOLL WINERY",1,"29700 SW BURKHALTER RD, HILLSBORO, OR 97123",45.463014,-122.983687
"ODOT",1,"48400 NW SUNSET HWY, BANKS, OR 97106",45.672733,-123.177433
"OHSU",1,"505 NW 185TH AVE, BEAVERTON, OR 97006",45.52347,-122.867553
"OLIGOS ETC INC",1,"9775 SW COMMERCE CIR STE C-6, WILSONVILLE, OR 97070",45.336234,-122.777127
"OREGON BERRY PACKING INC",1,"6000 SW MINTER BRIDGE RD, HILLSBORO, OR 97123",45.476752,-122.985929
"OREGON COLLEGE OF ART & CRAFT",1,"8245 SW BARNES RD, PORTLAND, OR 97225",45.510563,-122.760766
"OREGON HOLIDAY PRODUCTS LLC",1,"2331 23RD AVE, FOREST GROVE, OR 97116",45.523972,-123.106239
"OROWEAT",1,"10750 SW 5TH, BEAVERTON, OR 97005",45.483659,-122.786031
"PACIFIC FOODS OF OREGON",1,"9955 SW POTANO, TUALATIN, OR 97062",45.379361,-122.779611
"PACIFIC FOODS OF OREGON INC",1,"9735 SW TUALATIN SHRWD RD, TUALATIN, OR 97062",45.378251,-122.778446
"PACIFIC FOODS OF OREGON INC",1,"19300 SW TETON AVE, TUALATIN, OR 97062",45.382651,-122.78367
"PACIFIC FOODS OF OREGON INC",1,"19550 SW 97TH AVE, TUALATIN, OR 97062",45.419658,-122.556558
"PACIFIC FOODS OF OREGON INC",1,"9693 SW TUALATIN SHRWD RD, TUALATIN, OR 97062",45.378982,-122.774665
"PACIFIC FOODS OF OREGON INC",1,"19480 SW 97TH AVE, TUALATIN, OR 97062",45.419658,-122.556558
"PACIFIC FOODS OF OREGON INC",1,"19400 SW TETON AVE, TUALATIN, OR 97062",45.382567,-122.783485
"PACIFIC LANDSCAPE MGMT INC",1,"21555 NW AMBERWOOD DR, HILLSBORO, OR 97124",45.537797,-122.898103
"PACIFIC MODULAR INC",1,"6190 SW ARCTIC DR, BEAVERTON, OR 97005",45.481423,-122.780834
"PACIFIC MOTION LLC",1,"21249 SW 115TH AVE, TUALATIN, OR 97062",45.389777,-122.795393
"PACIFIC SPORTS TURF INC",1,"12725 SW HERMAN RD, TUALATIN, OR 97062",45.377304,-122.80796
"PACKAGING RESOURCES CO",1,"12555 SW TUALATIN SHRWD RD, TUALATIN, OR 97062",45.369357,-122.805587
"PARKS METAL PRODUCTS INC",1,"19460 SW SHAW, ALOHA, OR 97078",45.496995,-122.871428
"PARTNERS ON DEMAND INC",1,"13955 SW MILLIKAN WAY 100, BEAVERTON, OR 97005",45.489164,-122.806291
"PERMAPOST PRODUCTS",1,"4066 SE TV HWY, HILLSBORO, OR 97123",45.49707,-122.958363
"PGE",1,"2213 SW 153RD DR, BEAVERTON, OR 97006",45.501331,-122.835855
"PLASTI-FAB INC",1,"9665 SW TUALATIN SHRWD RD, TUALATIN, OR 97062",45.378982,-122.774665
"P-M INDUSTRIES INC",1,"14305 SW MILLIKAN, BEAVERTON, OR 97005",45.489164,-122.806291
"POLY-CAST INC",1,"14140 SW 72ND AVE STE 100, TIGARD, OR 97224",45.405217,-122.748984
"PORT OF PORTLAND",1,"1040 NE 25TH, HILLSBORO, OR 97214",45.515439,-122.640074
"PORTLAND GOLF CLUB",1,"5900 SW SCHOLLS FERRY RD, PORTLAND, OR 97225",45.477344,-122.763445
"POWDER TECH INC",1,"9900 SW HERMAN RD, TUALATIN, OR 97062",45.38644,-122.778463
"PRECISION WIRE COMPONENTS",1,"10280 SW SPOKANE CT, TUALATIN, OR 97062",45.382505,-122.781961
"PRECISION WIRE COMPONENTS LLC",1,"10230 SW SPOKANE CT, TUALATIN, OR 97062",45.382587,-122.781403
"PRINTGRAPHICS INC",1,"10950 SW 5TH ST STE 310, BEAVERTON, OR 97005",45.48365,-122.788806
"PROFESSIONAL GROUNDS MGMT",1,"28335 NW EVERGREEN RD, HILLSBORO, OR 97124",45.549943,-122.968934
"PRO-GRO MIXES INC",1,"26045 SW GRAHAMS FERRY RD, SHERWOOD, OR 97140",45.332097,-122.791606
"PROTOCO ENTERPRISES LLC",1,"28757 NW WEST UNION RD, NORTH PLAINS, OR 97133",45.596196,-122.97516
"PSALM 1 LANDSCAPE INC",1,"11440 NW HWY 47, FOREST GROVE, OR 97116",45.602617,-123.114366
"QUAIL VALLEY GOLF COURSE",1,"12565 NW AERTS RD, BANKS, OR 97106",45.611358,-123.095468
"R & D MFG INC",1,"160 SW FREEMAN AVE, HILLSBORO, OR 97123",45.521709,-122.99811
"R & S NURSERY CO",1,"11715 SW HILLSBORO HWY, HILLSBORO, OR 97123",45.435424,-122.974444
"R & S NURSERY INC",1,"28159 SW RAYNARD RD, HILLSBORO, OR 97123",45.41156,-122.967957
"RELIABLE TRANSMISSION",1,"3695 SW 185TH AVE, ALOHA, OR 97078",45.497107,-122.862915
"RELIABLE TRANSMISSION",1,"144 SE OAK ST, HILLSBORO, OR 97123",45.518768,-122.989161
"RESERS FINE FOODS INC",1,"11150 SW ALLEN BLVD, BEAVERTON, OR 97005",45.47655,-122.791005
"RESERS FINE FOODS INC",1,"15570 SW JENKINS AVE, BEAVERTON, OR 97006",45.506702,-122.837403
"RESERS FINE FOODS INC",1,"6999 NW CENTURY BLVD, HILLSBORO, OR 97124",45.544449,-122.988378
"RESERVE VINEYARDS GOLF CRS THE",1,"4805 SW 229TH AVE, ALOHA, OR 97007",45.484932,-122.913549
"ROCKMORE INTERNATIONAL INC",1,"10065 SW COMMERCE CIR, WILSONVILLE, OR 97070",45.335493,-122.777007
"SCOTTS LAWNSERVICE",1,"13565 SW TUALATIN SHRWD BLVD, SHERWOOD, OR 97140",45.368296,-122.816837
"SHOWPLACE LANDSCAPE SERVICE INC",1,"10870 SW 289TH PL, NORTH PLAINS, OR 97133",45.668573,-123.028124
"SHOWPLACE LANDSCAPE SVCS INC",1,"25925 SW GRAHAMS FERRY RD, SHERWOOD, OR 97140",45.332665,-122.791198
"SIGNATURE LANDSCAPE CARE",1,"23275 SW 82ND AVE, TUALATIN, OR 97062",45.352843,-122.761881
"SPECIALIZED PAVEMENT MARKING",1,"11095 SW INDUSTRIAL WAY BLDG B, TUALATIN, OR 97062",45.367613,-122.78961
"STANDARD MULTIWALL BAG MFG CO",1,"1800 SW MERLO, BEAVERTON, OR 97006",45.508544,-122.851961
"STIMSON LUMBER COMPANY",1,"49800 SW SCOGGINS VALLY RD, GASTON, OR 97119",45.468992,-123.189299
"SUBSURFACE TECHNOLOGIES",1,"11100 NW GORDON RD, NORTH PLAINS, OR 97133",45.601129,-123.012232
"SUBURBAN PLATING LLC",1,"13019 SW HERMAN RD, TUALATIN, OR 97062",45.375717,-122.811236
"SUMITOMO ELECTRIC SEMICONDUCT",1,"7230 NW EVERGREEN PKWY, HILLSBORO, OR 97124",45.53819,-122.871281
"SUMMIT FOODS",1,"1840 B STREET, FOREST GROVE, OR 97116",45.51762,-123.115814
"SUMMIT FOODS INC",1,"32155 NW COTTAGE ST, NORTH PLAINS, OR 97133",45.596624,-123.004545
"SUMMIT NATURAL ENERGY CORP",1,"535 N 4TH AVE, CORNELIUS, OR 97113",45.524301,-123.066748
"SUNBURST PRODUCTS INC",1,"10054 SW ARCTIC DR, BEAVERTON, OR 97005",45.481262,-122.780735
"SURE POWER INC",1,"10189 SW AVERY ST, TUALATIN, OR 97062",45.37173,-122.782688
"TAPP LABEL CO LLC",1,"11000 SW 11TH ST STE 400-D, BEAVERTON, OR 97005",45.479595,-122.788146
"TEKTRONIX INC",1,"13600 SW KARL BRAUN DR, BEAVERTON, OR 97077",45.498606,-122.816481
"TEKTRONIX INC",1,"13955 SW TERMAN DR, BEAVERTON, OR 97077",45.496693,-122.819621
"TEKTRONIX INC",1,"13900 SW KARL BRAUN DR, BEAVERTON, OR 97007",45.499338,-122.819667
"TEKTRONIX INC",1,"13700 SW KARL BRAUN DR, BEAVERTON, OR 97005",45.499198,-122.818114
"TEREX SERVICES",1,"12805 SW 77TH PL, TIGARD, OR 97223",45.436623,-122.79817
"TEUFEL PRODUCTS COMPANY",1,"31615 NW SCOTCH CHURCH RD, HILLSBORO, OR 97124",45.572673,-123.000417
"THERMAL MODIFICATION TECHNOLOGIES",1,"19830 SW TETON AVE, TUALATIN, OR 97062",45.37647,-122.781909
"TIGARD CITY OF",1,"8955 SW ASH AVE, TIGARD, OR 97223",45.430559,-122.771271
"TIGARD SAND & GRAVEL LLC",1,"21455 SW 120TH, TUALATIN, OR 97062",45.364379,-122.799175
"TIGARD-TUALATIN AQUATIC DISTRICT",1,"22380 SW BOONES FERRY RD, TUALATIN, OR 97062",45.35794,-122.774724
"TIGARD-TUALATIN AQUATIC DISTRICT",1,"8680 SW DURHAM RD, TIGARD, OR 97224",45.404213,-122.763585
"TIGARD-TUALATIN SCHOOL DIST23J",1,"9000 SW DURHAM RD, TIGARD, OR 97224",45.40437,-122.766523
"TIGARD-TUALATIN SCHOOL DIST23J",1,"14650 SW 97TH AVE, TIGARD, OR 97224",45.415174,-122.77622
"TIGARD-TUALATIN SCHOOL DIST23J",1,"22300 SW BOONES FERRY RD, TUALATIN, OR 97062",45.35854,-122.77474
"TOKAI CARBON USA INC",1,"4495 NW 235TH AVE, HILLSBORO, OR 97124",45.553422,-122.9184
"TOKYO ELECTRON AMERICA INC",1,"1800 NE 25TH AVE STES 2-10, HILLSBORO, OR 97124",45.550595,-122.962802
"TOKYO OHKA KOGYO AMERICA INC",1,"4600 NW BROOKWOOD PKWY, HILLSBORO, OR 97124",45.548307,-122.927294
"TRANE OREGON SERVICE CO",1,"7257 SW KABLE LN, PORTLAND, OR 97224",45.408124,-122.749352
"TRIAX METAL PRODUCTS",1,"1880 SW MERLO DR, BEAVERTON, OR 97006",45.506223,-122.847206
"TRIMET",1,"16130 SW MERLO RD, BEAVERTON, OR 97006",45.505213,-122.844341
"TRIMET",1,"16250 SW JENKINS RD, BEAVERTON, OR 97006",45.507452,-122.840286
"TRUGREEN LANDCARE",1,"26020 NW EVERGREEN, HILLSBORO, OR 97124",45.549863,-122.984162
"TUALATIN COUNTRY CLUB",1,"9145 SW TUALATIN RD, TUALATIN, OR 97062",45.387416,-122.77063
"TUALATIN HILLS PARK & REC",1,"3500 SW 78TH, PORTLAND, OR 97225",45.494729,-122.757822
"TUALATIN HILLS PARK & REC",1,"18300 NW PARKVIEW BLVD, PORTLAND, OR 97229",45.545228,-122.866036
"TUALATIN HILLS PARK & REC",1,"15707 SW WALKER RD, BEAVERTON, OR 97006",45.516415,-122.838817
"TUALATIN HILLS PARK & REC",1,"7300 SW SCHOLLS FERRY RD, BEAVERTON, OR 97008",45.466422,-122.777294
"TUALATIN HILLS PARK & REC",1,"9985 SW 125TH, BEAVERTON, OR 97006",45.468067,-122.805
"TUALATIN HILLS PARK & REC",1,"18650 SW KINNAMAN RD, ALOHA, OR 97007",45.486201,-122.86922
"TUALATIN HILLS PARK & REC",1,"12850 SW THIRD, BEAVERTON, OR 97005",45.485179,-122.808908
"TUALATIN HILLS PARK & REC",1,"13707 NW SCIENCE PARK DR, PORTLAND, OR 97229",45.525839,-122.819625
"TUALATIN VALLEY WATER DISTRICT",1,"9500 SW INGLEWOOD, BEAVERTON, OR 97225",45.486436,-122.771318
"TUALATIN VALLEY WATER DISTRICT",1,"11285 SW CENTER ST, BEAVERTON, OR 97005",45.493829,-122.792998
"TUALATIN VALLEY WATER DISTRICT",1,"2787 SW 75TH, HILLSBORO, OR 97123",45.505017,-122.903848
"TUALATIN VALLEY WATER DISTRICT",1,"4735 CORNELIUS PASS RD, HILLSBORO, OR 97124",45.553072,-122.900575
"TUALATIN VALLEY WATER DISTRICT",1,"1850 SW 170TH, BEAVERTON, OR 97006",45.524518,-122.851992
"TUALATIN VALLEY WATER DISTRICT",1,"7975 SW GRABHORN, BEAVERTON, OR 97007",45.462349,-122.891516
"TUFCOAT",1,"12345 SW MYSLONY ST, TUALATIN, OR 97062",45.376491,-122.804934
"TVT DIE CASTING & MFG INC",1,"7330 SW LANDMARK LN, PORTLAND, OR 97224",45.418137,-122.750015
"TVT DIE CASTING & MFG INC",1,"7340 SW LANDMARK LN, PORTLAND, OR 97224",45.418137,-122.750077
"USHER PRECISION MANUFACTURING INC",1,"3863 24TH AVE, FOREST GROVE, OR 97116",45.525241,-123.080025
"VANGUARD EMS INC",1,"3725 SW HOCKEN AVE, BEAVERTON, OR 97005",45.492289,-122.814445
"VERIS INDUSTRIES LLC",1,"12345 SW LEVETON DR, TUALATIN, OR 97062",45.385252,-122.798486
"VIOC",1,"6900 SW NYBERG ST, TUALATIN, OR 97062",45.382767,-122.747206
"VIOC",1,"15410 SW PACIFIC HWY, TIGARD, OR 97224",45.408612,-122.794296
"VIOC",1,"7570 SW BASELINE RD, HILLSBORO, OR 97123",45.516733,-122.904821
"VISION PLASTICS",1,"26000 SW PARKWAY CTR DR, WILSONVILLE, OR 97070",45.333752,-122.762161
"WADE MFG CO",1,"9995 SW AVERY ST, TUALATIN, OR 97062",45.371732,-122.779142
"WASHINGTON COUNTY",1,"1400 SW WALNUT ST, HILLSBORO, OR 97123",45.517563,-123.004057
"WASHINGTON COUNTY",1,"215 SW ADAMS, HILLSBORO, OR 97123",45.521219,-122.991372
"WESTMARK INDUSTRIES INC",1,"6701 SW MCEWAN RD, LAKE OSWEGO, OR 97035",45.389893,-122.742684
"WILLAMETTE LANDSCAPE SERVICES",1,"18480 SW PACIFIC DR, TUALATIN, OR 97062",45.386546,-122.813021
"WILLAMETTE RESOURCES INC",1,"10295 SW RIDDER RD, WILSONVILLE, OR 97070",45.331762,-122.782277
"WILSONVILLE CONCRETE PROD",1,"6700 SW 110TH CT, BEAVERTON, OR 97005",45.486528,-122.790104
"YEAROUND LAWN CARE",1,"2920 SE 74TH AVE, HILLSBORO, OR 97123",45.501481,-122.90568
